SOYUZ-MS 28             
1 66664U 25275A   26197.21800738  .00003540  00000+0  72346-4 0  9990
2 66664  51.6313 156.4232 0006748 301.4056  58.6272 15.49021242575362
CREW DRAGON 12          
1 67796U 26031A   26197.21800738  .00003540  00000+0  72346-4 0  9998
2 67796  51.6313 156.4232 0006748 301.4056  58.6272 15.49021242575325
SHENZHOU-23 (SZ-23)     
1 69180U 26113A   26197.24049423  .00001153  00000+0  19133-4 0  9990
2 69180  41.4687 145.4981 0002241 301.7123  58.3496 15.58121312296870
