{"fetched_at":"2026-07-16T17:46:14.791Z","source":"https://celestrak.org/NORAD/elements/gp.php?GROUP=stations&FORMAT=JSON","constellation":"crewed-vehicles","records":[{"OBJECT_NAME":"SOYUZ-MS 28","OBJECT_ID":"2025-275A","EPOCH":"2026-07-16T05:13:55.837632","CLASSIFICATION_TYPE":"U","MEAN_MOTION":15.49021242,"ECCENTRICITY":0.00067484,"INCLINATION":51.6313,"RA_OF_ASC_NODE":156.4232,"ARG_OF_PERICENTER":301.4056,"MEAN_ANOMALY":58.6272,"EPHEMERIS_TYPE":0,"NORAD_CAT_ID":66664,"ELEMENT_SET_NO":999,"REV_AT_EPOCH":57536,"BSTAR":0.000072346184,"MEAN_MOTION_DOT":0.0000354,"MEAN_MOTION_DDOT":0},{"OBJECT_NAME":"CREW DRAGON 12","OBJECT_ID":"2026-031A","EPOCH":"2026-07-16T05:13:55.837632","CLASSIFICATION_TYPE":"U","MEAN_MOTION":15.49021242,"ECCENTRICITY":0.00067484,"INCLINATION":51.6313,"RA_OF_ASC_NODE":156.4232,"ARG_OF_PERICENTER":301.4056,"MEAN_ANOMALY":58.6272,"EPHEMERIS_TYPE":0,"NORAD_CAT_ID":67796,"ELEMENT_SET_NO":999,"REV_AT_EPOCH":57532,"BSTAR":0.000072346184,"MEAN_MOTION_DOT":0.0000354,"MEAN_MOTION_DDOT":0},{"OBJECT_NAME":"SHENZHOU-23 (SZ-23)","OBJECT_ID":"2026-113A","EPOCH":"2026-07-16T05:46:18.701472","CLASSIFICATION_TYPE":"U","MEAN_MOTION":15.58121312,"ECCENTRICITY":0.00022414,"INCLINATION":41.4687,"RA_OF_ASC_NODE":145.4981,"ARG_OF_PERICENTER":301.7123,"MEAN_ANOMALY":58.3496,"EPHEMERIS_TYPE":0,"NORAD_CAT_ID":69180,"ELEMENT_SET_NO":999,"REV_AT_EPOCH":29687,"BSTAR":0.000019132692,"MEAN_MOTION_DOT":0.00001153,"MEAN_MOTION_DDOT":0}]}
